{"type": "FeatureCollection", "features": [ {"type": "Feature", "properties": {"norad_id": 30878, "name": "FENGYUN 1C DEB", "group": "fengyun-1c-debris", "lat": -45.52034860986082, "lon": 152.97579447185277, "alt_km": 858.0677868204466, "timestamp": "2025-12-06T07:31:40.516158+00:00", "meta": {"OBJECT_NAME": "FENGYUN 1C DEB", "OBJECT_ID": "1999-025AXQ", "EPOCH": "2025-12-02T11:20:36.401856", "MEAN_MOTION": 14.11849941, "ECCENTRICITY": 0.00403428, "INCLINATION": 98.7214, "RA_OF_ASC_NODE": 338.2344, "ARG_OF_PERICENTER": 324.0393, "MEAN_ANOMALY": 190.7849, "EPHEMERIS_TYPE": 0, "CLASSIFICATION_TYPE": "U", "NORAD_CAT_ID": 30878, "ELEMENT_SET_NO": 999, "REV_AT_EPOCH": 96222, "BSTAR": 0.00075829348, "MEAN_MOTION_DOT": 1.352e-05, "MEAN_MOTION_DDOT": 0}, "tle": {"line1": "1 30878U 99025AXQ 25336.47264354  .00001352  00000+0  75829-3 0  9999", "line2": "2 30878  98.7214 338.2344 0040342 324.0393 190.7849 14.11849941962224"}}, "geometry": {"type": "Point", "coordinates": [152.97579447185277, -45.52034860986082]}}, {"type": "Feature", "properties": {"norad_id": 30879, "name": "FENGYUN 1C DEB", "group": "fengyun-1c-debris", "lat": 17.177525435886775, "lon": -166.8604283249928, "alt_km": 638.8487505494968, "timestamp": "2025-12-06T07:31:40.516168+00:00", "meta": {"OBJECT_NAME": "FENGYUN 1C DEB", "OBJECT_ID": "1999-025AXR", "EPOCH": "2025-12-03T20:30:25.744032", "MEAN_MOTION": 14.66510234, "ECCENTRICITY": 0.0205334, "INCLINATION": 99.3525, "RA_OF_ASC_NODE": 193.2571, "ARG_OF_PERICENTER": 307.0591, "MEAN_ANOMALY": 51.1985, "EPHEMERIS_TYPE": 0, "CLASSIFICATION_TYPE": "U", "NORAD_CAT_ID": 30879, "ELEMENT_SET_NO": 999, "REV_AT_EPOCH": 61809, "BSTAR": 0.0077897, "MEAN_MOTION_DOT": 0.00059575, "MEAN_MOTION_DDOT": 0}, "tle": {"line1": "1 30879U 99025AXR 25337.85446463  .00059575  00000+0  77897-2 0  9992", "line2": "2 30879  99.3525 193.2571 0205334 307.0591  51.1985 14.66510234618097"}}, "geometry": {"type": "Point", "coordinates": [-166.8604283249928, 17.177525435886775]}}, {"type": "Feature", "properties": {"norad_id": 30880, "name": "FENGYUN 1C DEB", "group": "fengyun-1c-debris", "lat": 61.09108867269446, "lon": 35.85422457220872, "alt_km": 793.184988495661, "timestamp": "2025-12-06T07:31:40.516177+00:00", "meta": {"OBJECT_NAME": "FENGYUN 1C DEB", "OBJECT_ID": "1999-025AXS", "EPOCH": "2025-12-05T04:17:01.909248", "MEAN_MOTION": 14.25526805, "ECCENTRICITY": 0.00227492, "INCLINATION": 98.7959, "RA_OF_ASC_NODE": 50.9987, "ARG_OF_PERICENTER": 128.4584, "MEAN_ANOMALY": 231.8641, "EPHEMERIS_TYPE": 0, "CLASSIFICATION_TYPE": "U", "NORAD_CAT_ID": 30880, "ELEMENT_SET_NO": 999, "REV_AT_EPOCH": 96606, "BSTAR": 0.0029641926, "MEAN_MOTION_DOT": 6.989e-05, "MEAN_MOTION_DDOT": 0}, "tle": {"line1": "1 30880U 99025AXS 25339.17849432  .00006989  00000+0  29642-2 0  9990", "line2": "2 30880  98.7959  50.9987 0022749 128.4584 231.8641 14.25526805966062"}}, "geometry": {"type": "Point", "coordinates": [35.85422457220872, 61.09108867269446]}}, {"type": "Feature", "properties": {"norad_id": 30882, "name": "FENGYUN 1C DEB", "group": "fengyun-1c-debris", "lat": -57.19629767107914, "lon": 48.164433461682925, "alt_km": 668.2498008133416, "timestamp": "2025-12-06T07:31:40.516187+00:00", "meta": {"OBJECT_NAME": "FENGYUN 1C DEB", "OBJECT_ID": "1999-025AXU", "EPOCH": "2025-12-03T21:37:45.680160", "MEAN_MOTION": 14.86420394, "ECCENTRICITY": 0.01545465, "INCLINATION": 97.9448, "RA_OF_ASC_NODE": 33.2392, "ARG_OF_PERICENTER": 69.6846, "MEAN_ANOMALY": 292.0901, "EPHEMERIS_TYPE": 0, "CLASSIFICATION_TYPE": "U", "NORAD_CAT_ID": 30882, "ELEMENT_SET_NO": 999, "REV_AT_EPOCH": 99523, "BSTAR": 0.0018680058, "MEAN_MOTION_DOT": 0.00020499, "MEAN_MOTION_DDOT": 0}, "tle": {"line1": "1 30882U 99025AXU 25337.90122315  .00020499  00000+0  18680-2 0  9997", "line2": "2 30882  97.9448  33.2392 0154546  69.6846 292.0901 14.86420394995232"}}, "geometry": {"type": "Point", "coordinates": [48.164433461682925, -57.19629767107914]}}, {"type": "Feature", "properties": {"norad_id": 30883, "name": "FENGYUN 1C DEB", "group": "fengyun-1c-debris", "lat": -6.4083888207689625, "lon": -163.1406171278239, "alt_km": 791.4903310773743, "timestamp": "2025-12-06T07:31:40.516198+00:00", "meta": {"OBJECT_NAME": "FENGYUN 1C DEB", "OBJECT_ID": "1999-025AXV", "EPOCH": "2025-12-02T21:45:33.352992", "MEAN_MOTION": 14.14536044, "ECCENTRICITY": 0.01114302, "INCLINATION": 98.3632, "RA_OF_ASC_NODE": 14.6139, "ARG_OF_PERICENTER": 242.4481, "MEAN_ANOMALY": 244.9252, "EPHEMERIS_TYPE": 0, "CLASSIFICATION_TYPE": "U", "NORAD_CAT_ID": 30883, "ELEMENT_SET_NO": 999, "REV_AT_EPOCH": 96778, "BSTAR": 0.00025715885, "MEAN_MOTION_DOT": 4.83e-06, "MEAN_MOTION_DDOT": 0}, "tle": {"line1": "1 30883U 99025AXV 25336.90663603  .00000483  00000+0  25716-3 0  9997", "line2": "2 30883  98.3632  14.6139 0111430 242.4481 244.9252 14.14536044967781"}}, "geometry": {"type": "Point", "coordinates": [-163.1406171278239, -6.4083888207689625]}}, {"type": "Feature", "properties": {"norad_id": 30884, "name": "FENGYUN 1C DEB", "group": "fengyun-1c-debris", "lat": -42.08818390227421, "lon": 145.41202588307118, "alt_km": 689.948615314358, "timestamp": "2025-12-06T07:31:40.516208+00:00", "meta": {"OBJECT_NAME": "FENGYUN 1C DEB", "OBJECT_ID": "1999-025AXW", "EPOCH": "2025-12-04T05:36:53.624736", "MEAN_MOTION": 14.73101348, "ECCENTRICITY": 0.0068161, "INCLINATION": 98.8891, "RA_OF_ASC_NODE": 331.2629, "ARG_OF_PERICENTER": 2.3375, "MEAN_ANOMALY": 357.8136, "EPHEMERIS_TYPE": 0, "CLASSIFICATION_TYPE": "U", "NORAD_CAT_ID": 30884, "ELEMENT_SET_NO": 999, "REV_AT_EPOCH": 98536, "BSTAR": 0.0047715, "MEAN_MOTION_DOT": 0.00031948, "MEAN_MOTION_DDOT": 0}, "tle": {"line1": "1 30884U 99025AXW 25338.23395399  .00031948  00000+0  47715-2 0  9992", "line2": "2 30884  98.8891 331.2629 0068161   2.3375 357.8136 14.73101348985362"}}, "geometry": {"type": "Point", "coordinates": [145.41202588307118, -42.08818390227421]}}, {"type": "Feature", "properties": {"norad_id": 30885, "name": "FENGYUN 1C DEB", "group": "fengyun-1c-debris", "lat": 76.38751459511134, "lon": 41.4193262755628, "alt_km": 749.9419570643395, "timestamp": "2025-12-06T07:31:40.516218+00:00", "meta": {"OBJECT_NAME": "FENGYUN 1C DEB", "OBJECT_ID": "1999-025AXX", "EPOCH": "2025-12-03T19:29:29.285664", "MEAN_MOTION": 14.49127363, "ECCENTRICITY": 0.00545775, "INCLINATION": 99.0263, "RA_OF_ASC_NODE": 177.7167, "ARG_OF_PERICENTER": 246.2419, "MEAN_ANOMALY": 131.4149, "EPHEMERIS_TYPE": 0, "CLASSIFICATION_TYPE": "U", "NORAD_CAT_ID": 30885, "ELEMENT_SET_NO": 999, "REV_AT_EPOCH": 96848, "BSTAR": 0.0043524888, "MEAN_MOTION_DOT": 0.00016853, "MEAN_MOTION_DDOT": 0}, "tle": {"line1": "1 30885U 99025AXX 25337.81214451  .00016853  00000+0  43525-2 0  9998", "line2": "2 30885  99.0263 177.7167 0054577 246.2419 131.4149 14.49127363968485"}}, "geometry": {"type": "Point", "coordinates": [41.4193262755628, 76.38751459511134]}}, {"type": "Feature", "properties": {"norad_id": 30886, "name": "FENGYUN 1C DEB", "group": "fengyun-1c-debris", "lat": -65.33606075776213, "lon": 32.309959457841686, "alt_km": 848.3224994891243, "timestamp": "2025-12-06T07:31:40.516228+00:00", "meta": {"OBJECT_NAME": "FENGYUN 1C DEB", "OBJECT_ID": "1999-025AXY", "EPOCH": "2025-12-04T22:18:07.462656", "MEAN_MOTION": 14.22689124, "ECCENTRICITY": 0.0035956, "INCLINATION": 99.2094, "RA_OF_ASC_NODE": 231.5538, "ARG_OF_PERICENTER": 55.6703, "MEAN_ANOMALY": 304.7867, "EPHEMERIS_TYPE": 0, "CLASSIFICATION_TYPE": "U", "NORAD_CAT_ID": 30886, "ELEMENT_SET_NO": 999, "REV_AT_EPOCH": 96285, "BSTAR": 0.0038763, "MEAN_MOTION_DOT": 8.698e-05, "MEAN_MOTION_DDOT": 0}, "tle": {"line1": "1 30886U 99025AXY 25338.92925304  .00008698  00000+0  38763-2 0  9994", "line2": "2 30886  99.2094 231.5538 0035956  55.6703 304.7867 14.22689124962855"}}, "geometry": {"type": "Point", "coordinates": [32.309959457841686, -65.33606075776213]}}, {"type": "Feature", "properties": {"norad_id": 30887, "name": "FENGYUN 1C DEB", "group": "fengyun-1c-debris", "lat": 67.20194145091803, "lon": 15.76326006725485, "alt_km": 830.5330795112814, "timestamp": "2025-12-06T07:31:40.516239+00:00", "meta": {"OBJECT_NAME": "FENGYUN 1C DEB", "OBJECT_ID": "1999-025AXZ", "EPOCH": "2025-12-05T02:57:21.487104", "MEAN_MOTION": 14.44741769, "ECCENTRICITY": 0.02641573, "INCLINATION": 98.3705, "RA_OF_ASC_NODE": 35.0946, "ARG_OF_PERICENTER": 310.9904, "MEAN_ANOMALY": 46.8706, "EPHEMERIS_TYPE": 0, "CLASSIFICATION_TYPE": "U", "NORAD_CAT_ID": 30887, "ELEMENT_SET_NO": 999, "REV_AT_EPOCH": 98018, "BSTAR": 0.0012153989, "MEAN_MOTION_DOT": 6.43e-05, "MEAN_MOTION_DDOT": 0}, "tle": {"line1": "1 30887U 99025AXZ 25339.12316536  .00006430  00000+0  12154-2 0  9997", "line2": "2 30887  98.3705  35.0946 0264157 310.9904  46.8706 14.44741769980182"}}, "geometry": {"type": "Point", "coordinates": [15.76326006725485, 67.20194145091803]}}, {"type": "Feature", "properties": {"norad_id": 30888, "name": "FENGYUN 1C DEB", "group": "fengyun-1c-debris", "lat": -12.008447249708906, "lon": 135.76415221590818, "alt_km": 536.650361110952, "timestamp": "2025-12-06T07:31:40.516249+00:00", "meta": {"OBJECT_NAME": "FENGYUN 1C DEB", "OBJECT_ID": "1999-025AYA", "EPOCH": "2025-12-04T16:05:11.253696", "MEAN_MOTION": 14.93601757, "ECCENTRICITY": 0.0083067, "INCLINATION": 99.4819, "RA_OF_ASC_NODE": 315.8218, "ARG_OF_PERICENTER": 176.6996, "MEAN_ANOMALY": 183.4784, "EPHEMERIS_TYPE": 0, "CLASSIFICATION_TYPE": "U", "NORAD_CAT_ID": 30888, "ELEMENT_SET_NO": 999, "REV_AT_EPOCH": 99805, "BSTAR": 0.0024667836, "MEAN_MOTION_DOT": 0.00027876, "MEAN_MOTION_DDOT": 0}, "tle": {"line1": "1 30888U 99025AYA 25338.67026914  .00027876  00000+0  24668-2 0  9995", "line2": "2 30888  99.4819 315.8218 0083067 176.6996 183.4784 14.93601757998054"}}, "geometry": {"type": "Point", "coordinates": [135.76415221590818, -12.008447249708906]}}]}